[{"OBJECT_NAME":"TEVEL2-7","OBJECT_ID":"2025-052AE","EPOCH":"2026-03-09T15:52:01.887744","MEAN_MOTION":15.28414096,"ECCENTRICITY":0.00081048,"INCLINATION":97.4054,"RA_OF_ASC_NODE":324.3041,"ARG_OF_PERICENTER":124.683,"MEAN_ANOMALY":235.5175,"EPHEMERIS_TYPE":0,"CLASSIFICATION_TYPE":"U","NORAD_CAT_ID":63238,"ELEMENT_SET_NO":999,"REV_AT_EPOCH":5480,"BSTAR":0.00069668191,"MEAN_MOTION_DOT":0.00019244,"MEAN_MOTION_DDOT":0},{"OBJECT_NAME":"STARLINK-36519","OBJECT_ID":"2026-008E","EPOCH":"2026-03-09T09:11:08.446560","MEAN_MOTION":15.27609513,"ECCENTRICITY":0.0001292,"INCLINATION":43.0015,"RA_OF_ASC_NODE":207.0985,"ARG_OF_PERICENTER":222.2698,"MEAN_ANOMALY":137.8054,"EPHEMERIS_TYPE":0,"CLASSIFICATION_TYPE":"U","NORAD_CAT_ID":67449,"ELEMENT_SET_NO":999,"REV_AT_EPOCH":952,"BSTAR":0.0011093725,"MEAN_MOTION_DOT":0.00030419,"MEAN_MOTION_DDOT":0}]
