TEVEL2-7                
1 63238U 25052AE  26068.66113295  .00019244  00000+0  69668-3 0  9998
2 63238  97.4054 324.3041 0008105 124.6830 235.5175 15.28414096 54803
STARLINK-36519          
1 67449U 26008E   26068.38273665  .00030419  00000+0  11094-2 0  9991
2 67449  43.0015 207.0985 0001292 222.2698 137.8054 15.27609513  9524
